STARLINK-36813
1 67892U 26035P   26061.16668981 -.00780917  21901-3 -11692-2 0  9999
2 67892  97.2764 352.9097 0000917  96.7080 155.0961 16.04758178  2546
